{
  "type": "FeatureCollection",
  "features": [
    {
      "type": "Feature",
      "properties": {
        "norad_id": 31464,
        "name": "FENGYUN 1C DEB",
        "group": "fengyun-1c-debris",
        "lat": -23.268659820609553,
        "lon": -150.86253905806169,
        "alt_km": 832.6261496998059,
        "timestamp": "2025-12-12T03:50:52.699831+00:00",
        "meta_object_name": "FENGYUN 1C DEB",
        "meta_object_id": "1999-025BVC",
        "meta_epoch": "2025-12-08T09:04:42.155616",
        "meta_mean_motion": 14.12469302,
        "meta_eccentricity": 0.00430438,
        "meta_inclination": 98.7953,
        "meta_ra_of_asc_node": 29.243,
        "meta_arg_of_pericenter": 254.8356,
        "meta_mean_anomaly": 168.2264,
        "meta_ephemeris_type": 0,
        "meta_classification_type": "U",
        "meta_norad_cat_id": 31464,
        "meta_element_set_no": 999,
        "meta_rev_at_epoch": 94618,
        "meta_bstar": 0.00054133303,
        "meta_mean_motion_dot": 9.64e-06,
        "meta_mean_motion_ddot": 0,
        "tle_line1": "1 31464U 99025BVC 25342.37826569  .00000964  00000+0  54133-3 0  9992",
        "tle_line2": "2 31464  98.7953  29.2430 0043043 254.8356 168.2264 14.12469302946187"
      },
      "geometry": {
        "type": "Point",
        "coordinates": [
          -150.86253905806169,
          -23.268659820609553
        ]
      }
    },
    {
      "type": "Feature",
      "properties": {
        "norad_id": 31466,
        "name": "FENGYUN 1C DEB",
        "group": "fengyun-1c-debris",
        "lat": 80.2793587563787,
        "lon": -153.01135760099586,
        "alt_km": 975.0301104517766,
        "timestamp": "2025-12-12T03:50:52.699841+00:00",
        "meta_object_name": "FENGYUN 1C DEB",
        "meta_object_id": "1999-025BVE",
        "meta_epoch": "2025-12-10T12:30:21.903840",
        "meta_mean_motion": 14.18513848,
        "meta_eccentricity": 0.0299283,
        "meta_inclination": 99.0869,
        "meta_ra_of_asc_node": 274.4154,
        "meta_arg_of_pericenter": 315.1906,
        "meta_mean_anomaly": 42.5446,
        "meta_ephemeris_type": 0,
        "meta_classification_type": "U",
        "meta_norad_cat_id": 31466,
        "meta_element_set_no": 999,
        "meta_rev_at_epoch": 96297,
        "meta_bstar": 0.00040872,
        "meta_mean_motion_dot": 1.262e-05,
        "meta_mean_motion_ddot": 0,
        "tle_line1": "1 31466U 99025BVE 25344.52108685  .00001262  00000+0  40872-3 0  9992",
        "tle_line2": "2 31466  99.0869 274.4154 0299283 315.1906  42.5446 14.18513848962979"
      },
      "geometry": {
        "type": "Point",
        "coordinates": [
          -153.01135760099586,
          80.2793587563787
        ]
      }
    },
    {
      "type": "Feature",
      "properties": {
        "norad_id": 31468,
        "name": "FENGYUN 1C DEB",
        "group": "fengyun-1c-debris",
        "lat": 72.68086996446159,
        "lon": -170.27601543326202,
        "alt_km": 675.5008252344751,
        "timestamp": "2025-12-12T03:50:52.699851+00:00",
        "meta_object_name": "FENGYUN 1C DEB",
        "meta_object_id": "1999-025BVG",
        "meta_epoch": "2025-12-07T05:29:24.890784",
        "meta_mean_motion": 14.46565121,
        "meta_eccentricity": 0.01663478,
        "meta_inclination": 98.1709,
        "meta_ra_of_asc_node": 337.5297,
        "meta_arg_of_pericenter": 183.8861,
        "meta_mean_anomaly": 176.1053,
        "meta_ephemeris_type": 0,
        "meta_classification_type": "U",
        "meta_norad_cat_id": 31468,
        "meta_element_set_no": 999,
        "meta_rev_at_epoch": 67292,
        "meta_bstar": 0.00064627519,
        "meta_mean_motion_dot": 2.719e-05,
        "meta_mean_motion_ddot": 0,
        "tle_line1": "1 31468U 99025BVG 25341.22876031  .00002719  00000+0  64628-3 0  9998",
        "tle_line2": "2 31468  98.1709 337.5297 0166347 183.8861 176.1053 14.46565121672920"
      },
      "geometry": {
        "type": "Point",
        "coordinates": [
          -170.27601543326202,
          72.68086996446159
        ]
      }
    },
    {
      "type": "Feature",
      "properties": {
        "norad_id": 31473,
        "name": "FENGYUN 1C DEB",
        "group": "fengyun-1c-debris",
        "lat": -68.43550068274278,
        "lon": 41.59575252705654,
        "alt_km": 796.7892962277037,
        "timestamp": "2025-12-12T03:50:52.699862+00:00",
        "meta_object_name": "FENGYUN 1C DEB",
        "meta_object_id": "1999-025BVM",
        "meta_epoch": "2025-12-11T01:26:15.690912",
        "meta_mean_motion": 14.29765518,
        "meta_eccentricity": 0.00649758,
        "meta_inclination": 98.5459,
        "meta_ra_of_asc_node": 18.153,
        "meta_arg_of_pericenter": 19.92,
        "meta_mean_anomaly": 9.8753,
        "meta_ephemeris_type": 0,
        "meta_classification_type": "U",
        "meta_norad_cat_id": 31473,
        "meta_element_set_no": 999,
        "meta_rev_at_epoch": 69497,
        "meta_bstar": 0.0020397531,
        "meta_mean_motion_dot": 5.319e-05,
        "meta_mean_motion_ddot": 0,
        "tle_line1": "1 31473U 99025BVM 25345.05990383  .00005319  00000+0  20398-2 0  9990",
        "tle_line2": "2 31473  98.5459  18.1530 0064975  19.9200   9.8753 14.29765518694975"
      },
      "geometry": {
        "type": "Point",
        "coordinates": [
          41.59575252705654,
          -68.43550068274278
        ]
      }
    },
    {
      "type": "Feature",
      "properties": {
        "norad_id": 31474,
        "name": "FENGYUN 1C DEB",
        "group": "fengyun-1c-debris",
        "lat": -72.95744552808564,
        "lon": -179.6904930646225,
        "alt_km": 829.5048526324545,
        "timestamp": "2025-12-12T03:50:52.699872+00:00",
        "meta_object_name": "FENGYUN 1C DEB",
        "meta_object_id": "1999-025BVN",
        "meta_epoch": "2025-12-11T09:37:03.213696",
        "meta_mean_motion": 14.10584949,
        "meta_eccentricity": 0.00718228,
        "meta_inclination": 99.1446,
        "meta_ra_of_asc_node": 31.2358,
        "meta_arg_of_pericenter": 209.8441,
        "meta_mean_anomaly": 149.8624,
        "meta_ephemeris_type": 0,
        "meta_classification_type": "U",
        "meta_norad_cat_id": 31474,
        "meta_element_set_no": 999,
        "meta_rev_at_epoch": 94951,
        "meta_bstar": 0.0022387953,
        "meta_mean_motion_dot": 4.045e-05,
        "meta_mean_motion_ddot": 0,
        "tle_line1": "1 31474U 99025BVN 25345.40073164  .00004045  00000+0  22388-2 0  9995",
        "tle_line2": "2 31474  99.1446  31.2358 0071822 209.8441 149.8624 14.10584949949511"
      },
      "geometry": {
        "type": "Point",
        "coordinates": [
          -179.6904930646225,
          -72.95744552808564
        ]
      }
    },
    {
      "type": "Feature",
      "properties": {
        "norad_id": 31475,
        "name": "FENGYUN 1C DEB",
        "group": "fengyun-1c-debris",
        "lat": 25.215215998816713,
        "lon": 59.08123649545767,
        "alt_km": 656.1329667123609,
        "timestamp": "2025-12-12T03:50:52.699881+00:00",
        "meta_object_name": "FENGYUN 1C DEB",
        "meta_object_id": "1999-025BVP",
        "meta_epoch": "2025-12-11T10:27:14.577696",
        "meta_mean_motion": 14.38191737,
        "meta_eccentricity": 0.02116741,
        "meta_inclination": 98.939,
        "meta_ra_of_asc_node": 234.0763,
        "meta_arg_of_pericenter": 110.9432,
        "meta_mean_anomaly": 251.4548,
        "meta_ephemeris_type": 0,
        "meta_classification_type": "U",
        "meta_norad_cat_id": 31475,
        "meta_element_set_no": 999,
        "meta_rev_at_epoch": 96060,
        "meta_bstar": 0.00096885182,
        "meta_mean_motion_dot": 3.765e-05,
        "meta_mean_motion_ddot": 0,
        "tle_line1": "1 31475U 99025BVP 25345.43558539  .00003765  00000+0  96885-3 0  9995",
        "tle_line2": "2 31475  98.9390 234.0763 0211674 110.9432 251.4548 14.38191737960600"
      },
      "geometry": {
        "type": "Point",
        "coordinates": [
          59.08123649545767,
          25.215215998816713
        ]
      }
    },
    {
      "type": "Feature",
      "properties": {
        "norad_id": 31476,
        "name": "FENGYUN 1C DEB",
        "group": "fengyun-1c-debris",
        "lat": -18.21018610622138,
        "lon": 62.60723691597181,
        "alt_km": 860.6711023565804,
        "timestamp": "2025-12-12T03:50:52.699892+00:00",
        "meta_object_name": "FENGYUN 1C DEB",
        "meta_object_id": "1999-025BVQ",
        "meta_epoch": "2025-12-10T04:39:14.318208",
        "meta_mean_motion": 14.22073419,
        "meta_eccentricity": 0.0053112,
        "meta_inclination": 98.8964,
        "meta_ra_of_asc_node": 57.6705,
        "meta_arg_of_pericenter": 178.8623,
        "meta_mean_anomaly": 181.2684,
        "meta_ephemeris_type": 0,
        "meta_classification_type": "U",
        "meta_norad_cat_id": 31476,
        "meta_element_set_no": 999,
        "meta_rev_at_epoch": 95663,
        "meta_bstar": 0.0024088,
        "meta_mean_motion_dot": 5.365e-05,
        "meta_mean_motion_ddot": 0,
        "tle_line1": "1 31476U 99025BVQ 25344.19391572  .00005365  00000+0  24088-2 0  9993",
        "tle_line2": "2 31476  98.8964  57.6705 0053112 178.8623 181.2684 14.22073419956636"
      },
      "geometry": {
        "type": "Point",
        "coordinates": [
          62.60723691597181,
          -18.21018610622138
        ]
      }
    }
  ]
}